SL-8 R/B                
1 15483U 85006B   26201.83835321  .00000170  00000+0  65011-4 0  9998
2 15483  74.0457  16.1352 0019233 258.4111 206.3549 14.37847344173160
SL-12 R/B(2)            
1 15772U 85042D   26201.92786736  .00000021  00000+0  31161-4 0  9998
2 15772  71.1072 166.2299 0037358 277.7822 145.2638 14.22011821133332
SL-14 R/B               
1 15945U 85069B   26201.89284267  .00000236  00000+0  23723-4 0  9990
2 15945  82.5254 259.6676 0020281 109.7059 250.6348 14.86537473192623
SL-16 R/B               
1 16182U 85097B   26201.83009291  .00000202  00000+0  12494-3 0  9996
2 16182  71.0006 220.2490 0005886  40.1225 132.1026 14.16615586106087
SL-14 R/B               
1 16496U 86006B   26201.90003104  .00000302  00000+0  29118-4 0  9993
2 16496  82.5285 134.3900 0075966 189.8068 170.1673 14.86971077169002
COSMOS 1743             
1 16719U 86034A   26201.70360211  .00040647  00000+0  33673-3 0  9991
2 16719  82.5269 293.0148 0005572 159.7039 200.4446 15.70034545201049
SL-14 R/B               
1 16792U 86046B   26201.82833274  .00000281  00000+0  29415-4 0  9992
2 16792  82.4840 314.3888 0024005 144.9587 215.3214 14.85693257146174
SL-14 R/B               
1 16882U 86055B   26201.89683098  .00000268  00000+0  28082-4 0  9990
2 16882  82.5209   1.4351 0017416 249.7657 225.2898 14.85742719139148
AJISAI (EGS)            
1 16908U 86061A   26201.96583042 -.00000101  00000+0 -22943-4 0  9990
2 16908  50.0104  43.5269 0011074 266.6261 257.7151 12.44516698484591
SL-14 R/B               
1 17567U 87024B   26201.81333501  .00000301  00000+0  31369-4 0  9991
2 17567  82.5304 327.6441 0018351 175.0272 185.1130 14.86234399107904
COSMOS 1833             
1 17589U 87027A   26201.87472352 -.00000009  00000+0  20674-4 0  9995
2 17589  70.9214  46.0625 0024656 359.6430   0.4669 14.13067665 29130
SL-16 R/B               
1 17590U 87027B   26201.88473558  .00000162  00000+0  10397-3 0  9996
2 17590  71.0040 355.8158 0007231 275.9429  84.0871 14.17175762 34211
SL-14 R/B               
1 17912U 87038B   26201.94422677  .00000296  00000+0  31326-4 0  9993
2 17912  82.5018 171.2753 0020866  84.6289 275.7307 14.85464081 99012
COSMOS 1844             
1 17973U 87041A   26201.90822919 -.00000064  00000+0 -82132-5 0  9990
2 17973  70.9000 113.1802 0030938 187.0605 173.0086 14.14581332 22428
SL-14 R/B               
1 18153U 87055B   26201.42611190  .00000186  00000+0  18584-4 0  9992
2 18153  82.4968 223.8933 0019147 296.5229  63.4023 14.85728795 89645
COSMOS 1867             
1 18187U 87060A   26201.94587710 -.00000067  00000+0  12581-4 0  9992
2 18187  65.0115 293.5154 0017286 281.9754  77.9393 14.31518873 39016
SL-14 R/B               
1 18749U 88001B   26201.90197228  .00000231  00000+0  23769-4 0  9991
2 18749  82.5116  70.0522 0018638 153.3986 206.8191 14.85628928 61806
COSMOS 1933             
1 18958U 88020A   26201.83527774  .00002392  00000+0  11312-3 0  9999
2 18958  82.5140 119.1120 0005975  93.0686 267.1232 15.18913165 70433
SL-3 R/B                
1 19046U 88032B   26201.92768942  .00002774  00000+0  12697-3 0  9996
2 19046  97.5280 184.9434 0026931 126.6648 233.7068 15.21058533 72359
SL-16 R/B               
1 19120U 88039B   26201.94265273  .00000055  00000+0  48881-4 0  9992
2 19120  71.0145 146.7824 0020309 140.0322 220.2303 14.19632029977294
COSMOS 1953             
1 19210U 88050A   26201.95774428  .00005282  00000+0  17835-3 0  9994
2 19210  82.5071  23.9637 0010988  20.9996 339.1694 15.30386796 58151
SL-8 R/B                
1 19257U 88053B   26201.81482034  .00000095  00000+0  39334-4 0  9998
2 19257  74.0451 227.0694 0019945  10.9198 161.7292 14.38979780995741
COSMOS 1975             
1 19573U 88093A   26201.84640426  .00005455  00000+0  18801-3 0  9997
2 19573  82.5206 343.8325 0012293  64.8427 295.4087 15.29710223 39757
SL-14 R/B               
1 19574U 88093B   26201.96743968  .00000217  00000+0  22189-4 0  9992
2 19574  82.5309 276.9333 0019562 320.4402 212.6141 14.85762215 20804
SL-16 R/B               
1 19650U 88102B   26201.48590432  .00000175  00000+0  11268-3 0  9999
2 19650  70.9971 232.0743 0013996 177.3108 182.8093 14.16167475945698
INTERCOSMOS 24          
1 20261U 89080A   26201.92799541  .00000168  00000+0  46431-4 0  9999
2 20261  82.6057  17.6816 1186912 343.6370  12.9281 12.59693441683570
SL-14 R/B               
1 20262U 89080C   26201.92304516  .00000064  00000+0  17976-4 0  9991
2 20262  82.5927  87.6311 1228926 240.1864 107.1560 12.50579184676807
DELTA 1 R/B             
1 20323U 89089B   26201.46390244  .00000135  00000+0  41961-4 0  9990
2 20323  97.0638  27.6972 0070519  63.6811 297.1609 14.50749596914980
ARIANE 40 R/B           
1 20443U 90005H   26201.74635862  .00000090  00000+0  41999-4 0  9993
2 20443  98.2939 258.3156 0010644 158.0842 202.0804 14.39942264911953
DELTA 2 R/B(1)          
1 20453U 90008B   26201.66620797  .00093196  00000+0  55118-3 0  9995
2 20453  35.6001  10.7424 0056222  68.2828 292.3887 15.74532103946975
