OBJECT_NAME,OBJECT_ID,EPOCH,MEAN_MOTION,ECCENTRICITY,INCLINATION,RA_OF_ASC_NODE,ARG_OF_PERICENTER,MEAN_ANOMALY,EPHEMERIS_TYPE,CLASSIFICATION_TYPE,NORAD_CAT_ID,ELEMENT_SET_NO,REV_AT_EPOCH,BSTAR,MEAN_MOTION_DOT,MEAN_MOTION_DDOT
SL-8 R/B,1985-006B,2026-07-20T20:07:13.717344,14.37847344,.00192333,74.0457,16.1352,258.4111,206.3549,0,U,15483,999,17316,.65011196E-4,.17E-5,0
SL-12 R/B(2),1985-042D,2026-07-20T22:16:07.739904,14.22011821,.00373588,71.1072,166.2299,277.7822,145.2638,0,U,15772,999,13333,.31161256E-4,.21E-6,0
SL-14 R/B,1985-069B,2026-07-20T21:25:41.606688,14.86537473,.00202818,82.5254,259.6676,109.7059,250.6348,0,U,15945,999,19262,.23723164E-4,.236E-5,0
SL-16 R/B,1985-097B,2026-07-20T19:55:20.027424,14.16615586,.00058868,71.0006,220.2490,40.1225,132.1026,0,U,16182,999,10608,.12493639E-3,.202E-5,0
SL-14 R/B,1986-006B,2026-07-20T21:36:02.681856,14.86971077,.00759669,82.5285,134.3900,189.8068,170.1673,0,U,16496,999,16900,.29118229E-4,.302E-5,0
COSMOS 1743,1986-034A,2026-07-20T16:53:11.222304,15.70034545,.00055723,82.5269,293.0148,159.7039,200.4446,0,U,16719,999,20104,.3367258E-3,.40647E-3,0
SL-14 R/B,1986-046B,2026-07-20T19:52:47.948736,14.85693257,.00240051,82.4840,314.3888,144.9587,215.3214,0,U,16792,999,14617,.29415124E-4,.281E-5,0
SL-14 R/B,1986-055B,2026-07-20T21:31:26.196672,14.85742719,.00174164,82.5209,1.4351,249.7657,225.2898,0,U,16882,999,13914,.28081565E-4,.268E-5,0
AJISAI (EGS),1986-061A,2026-07-20T23:10:47.748288,12.44516698,.00110741,50.0104,43.5269,266.6261,257.7151,0,U,16908,999,48459,-.22942948E-4,-.101E-5,0
SL-14 R/B,1987-024B,2026-07-20T19:31:12.144864,14.86234399,.00183511,82.5304,327.6441,175.0272,185.1130,0,U,17567,999,10790,.31368758E-4,.301E-5,0
COSMOS 1833,1987-027A,2026-07-20T20:59:36.112128,14.13067665,.00246561,70.9214,46.0625,359.6430,0.4669,0,U,17589,999,2913,.20674402E-4,-.9E-7,0
SL-16 R/B,1987-027B,2026-07-20T21:14:01.154112,14.17175762,.00072318,71.0040,355.8158,275.9429,84.0871,0,U,17590,999,3421,.10397101E-3,.162E-5,0
SL-14 R/B,1987-038B,2026-07-20T22:39:41.192928,14.85464081,.00208665,82.5018,171.2753,84.6289,275.7307,0,U,17912,999,9901,.31326492E-4,.296E-5,0
COSMOS 1844,1987-041A,2026-07-20T21:47:51.002016,14.14581332,.00309388,70.9000,113.1802,187.0605,173.0086,0,U,17973,999,2242,-.821317E-5,-.64E-6,0
SL-14 R/B,1987-055B,2026-07-20T10:13:36.068160,14.85728795,.0019147,82.4968,223.8933,296.5229,63.4023,0,U,18153,999,8964,.18584134E-4,.186E-5,0
COSMOS 1867,1987-060A,2026-07-20T22:42:03.781440,14.31518873,.00172865,65.0115,293.5154,281.9754,77.9393,0,U,18187,999,3901,.12581224E-4,-.67E-6,0
SL-14 R/B,1988-001B,2026-07-20T21:38:50.404992,14.85628928,.00186389,82.5116,70.0522,153.3986,206.8191,0,U,18749,999,6180,.23768905E-4,.231E-5,0
COSMOS 1933,1988-020A,2026-07-20T20:02:47.996736,15.18913165,.00059752,82.5140,119.1120,93.0686,267.1232,0,U,18958,999,7043,.11311605E-3,.2392E-4,0
SL-3 R/B,1988-032B,2026-07-20T22:15:52.365888,15.21058533,.0026931,97.5280,184.9434,126.6648,233.7068,0,U,19046,999,7235,.12696519E-3,.2774E-4,0
SL-16 R/B,1988-039B,2026-07-20T22:37:25.195872,14.19632029,.00203099,71.0145,146.7824,140.0322,220.2303,0,U,19120,999,97729,.48881209E-4,.55E-6,0
COSMOS 1953,1988-050A,2026-07-20T22:59:09.105792,15.30386796,.00109881,82.5071,23.9637,20.9996,339.1694,0,U,19210,999,5815,.17835114E-3,.5282E-4,0
SL-8 R/B,1988-053B,2026-07-20T19:33:20.477376,14.38979780,.0019945,74.0451,227.0694,10.9198,161.7292,0,U,19257,999,99574,.39334191E-4,.95E-6,0
COSMOS 1975,1988-093A,2026-07-20T20:18:49.328064,15.29710223,.00122931,82.5206,343.8325,64.8427,295.4087,0,U,19573,999,3975,.18801476E-3,.5455E-4,0
SL-14 R/B,1988-093B,2026-07-20T23:13:06.788352,14.85762215,.00195621,82.5309,276.9333,320.4402,212.6141,0,U,19574,999,2080,.22188579E-4,.217E-5,0
SL-16 R/B,1988-102B,2026-07-20T11:39:42.133248,14.16167475,.00139964,70.9971,232.0743,177.3108,182.8093,0,U,19650,999,94569,.11267668E-3,.175E-5,0
INTERCOSMOS 24,1989-080A,2026-07-20T22:16:18.803424,12.59693441,.11869122,82.6057,17.6816,343.6370,12.9281,0,U,20261,999,68357,.46431138E-4,.168E-5,0
SL-14 R/B,1989-080C,2026-07-20T22:09:11.101824,12.50579184,.12289265,82.5927,87.6311,240.1864,107.1560,0,U,20262,999,67680,.17975625E-4,.64E-6,0
DELTA 1 R/B,1989-089B,2026-07-20T11:08:01.170816,14.50749596,.00705195,97.0638,27.6972,63.6811,297.1609,0,U,20323,999,91498,.41960872E-4,.135E-5,0
ARIANE 40 R/B,1990-005H,2026-07-20T17:54:45.384768,14.39942264,.00106448,98.2939,258.3156,158.0842,202.0804,0,U,20443,999,91195,.41998554E-4,.9E-6,0
DELTA 2 R/B(1),1990-008B,2026-07-20T15:59:20.368608,15.74532103,.00562225,35.6001,10.7424,68.2828,292.3887,0,U,20453,999,94697,.5511788E-3,.93196E-3,0
